{
  "norad_id": 58600,
  "name": "STARLINK-31052",
  "history": [
    {
      "epoch": "2026-03-28T15:31:59.077056Z",
      "apogee_km": 486.0440010255288,
      "perigee_km": 485.05425748568996,
      "latitude_deg": -2.820637073398076e-05,
      "longitude_deg": 2.433158892551193,
      "height_km": 485.3887643685202,
      "semi_major_axis_km": 6863.68612925561,
      "eccentricity": 7.21e-05,
      "inclination_deg": 43.0038,
      "raan_deg": 61.494,
      "arg_perigee_deg": 262.6823,
      "mean_anomaly_deg": 97.3946,
      "mean_motion_rev_day": 15.26745466
    },
    {
      "epoch": "2026-03-28T23:23:01.159872Z",
      "apogee_km": 486.4803577818602,
      "perigee_km": 484.6216710675544,
      "latitude_deg": -1.1876652891897458e-05,
      "longitude_deg": -117.49261402681373,
      "height_km": 485.4303535722281,
      "semi_major_axis_km": 6863.688014424707,
      "eccentricity": 0.0001354,
      "inclination_deg": 43.0055,
      "raan_deg": 59.6493,
      "arg_perigee_deg": 263.6988,
      "mean_anomaly_deg": 96.3709,
      "mean_motion_rev_day": 15.26744837
    },
    {
      "epoch": "2026-03-29T22:56:08.341440Z",
      "apogee_km": 486.66049853197,
      "perigee_km": 484.4543698669295,
      "latitude_deg": 1.9042521219937966e-06,
      "longitude_deg": -117.27306811774858,
      "height_km": 485.4321525213391,
      "semi_major_axis_km": 6863.6944341994495,
      "eccentricity": 0.00016071,
      "inclination_deg": 43.0073,
      "raan_deg": 54.116,
      "arg_perigee_deg": 264.9566,
      "mean_anomaly_deg": 95.1102,
      "mean_motion_rev_day": 15.26742695
    },
    {
      "epoch": "2026-03-30T14:38:13.365888Z",
      "apogee_km": 486.7594321617253,
      "perigee_km": 484.4438812884928,
      "latitude_deg": -3.478151228628679e-05,
      "longitude_deg": 2.871324888720913,
      "height_km": 485.4531849267879,
      "semi_major_axis_km": 6863.738656725109,
      "eccentricity": 0.00016868,
      "inclination_deg": 43.0072,
      "raan_deg": 50.4262,
      "arg_perigee_deg": 266.3494,
      "mean_anomaly_deg": 93.7164,
      "mean_motion_rev_day": 15.2672794
    },
    {
      "epoch": "2026-03-31T14:11:20.272704Z",
      "apogee_km": 486.6634889760426,
      "perigee_km": 484.43141879163977,
      "latitude_deg": -5.099814026489128e-05,
      "longitude_deg": 3.0884875557269544,
      "height_km": 485.51173303607396,
      "semi_major_axis_km": 6863.684453883841,
      "eccentricity": 0.0001626,
      "inclination_deg": 43.0081,
      "raan_deg": 44.8894,
      "arg_perigee_deg": 260.3829,
      "mean_anomaly_deg": 99.6838,
      "mean_motion_rev_day": 15.26746025
    },
    {
      "epoch": "2026-04-01T20:00:39.646944Z",
      "apogee_km": 485.73396142736874,
      "perigee_km": 482.75705989424387,
      "latitude_deg": -1.7474495638359113e-05,
      "longitude_deg": -92.4801491097405,
      "height_km": 484.08642796775945,
      "semi_major_axis_km": 6862.382510660806,
      "eccentricity": 0.0002169,
      "inclination_deg": 43.0078,
      "raan_deg": 37.8762,
      "arg_perigee_deg": 267.585,
      "mean_anomaly_deg": 92.4753,
      "mean_motion_rev_day": 15.27180531
    },
    {
      "epoch": "2026-04-02T13:16:34.993056Z",
      "apogee_km": 484.826411965455,
      "perigee_km": 483.08234282097783,
      "latitude_deg": -2.300324641990984e-05,
      "longitude_deg": 3.769973072700396,
      "height_km": 483.79534254729657,
      "semi_major_axis_km": 6862.091377393216,
      "eccentricity": 0.00012708,
      "inclination_deg": 43.0045,
      "raan_deg": 33.816,
      "arg_perigee_deg": 265.8011,
      "mean_anomaly_deg": 94.2695,
      "mean_motion_rev_day": 15.27277721
    },
    {
      "epoch": "2026-04-03T04:58:42.778848Z",
      "apogee_km": 486.97279745512697,
      "perigee_km": 482.4201309916298,
      "latitude_deg": 5.065148949326921e-05,
      "longitude_deg": 123.90294619897648,
      "height_km": 483.2053435182205,
      "semi_major_axis_km": 6862.833464223378,
      "eccentricity": 0.00033169,
      "inclination_deg": 43.0033,
      "raan_deg": 30.1262,
      "arg_perigee_deg": 56.2766,
      "mean_anomaly_deg": 303.8402,
      "mean_motion_rev_day": 15.27030008
    }
  ]
}